{
  "norad_id": 65172,
  "name": "HULIANWANG DIGUI-66",
  "history": [
    {
      "epoch": "2026-03-28T22:27:40.798368",
      "apogee_km": 1169.1315950507233,
      "perigee_km": 1166.6771696307032,
      "latitude_deg": -68.07496805626901,
      "longitude_deg": 67.04533152002841,
      "semi_major_axis_km": 7546.041382340713,
      "eccentricity": 0.00016263,
      "inclination_deg": 86.4853,
      "raan_deg": 279.0636,
      "arg_perigee_deg": 100.1812,
      "mean_anomaly_deg": 259.9506,
      "mean_motion_rev_day": 13.24414687
    },
    {
      "epoch": "2026-03-29T03:54:02.839968",
      "apogee_km": 1169.138500614472,
      "perigee_km": 1166.669436009639,
      "latitude_deg": 83.95033226282048,
      "longitude_deg": 88.80315551999956,
      "semi_major_axis_km": 7546.040968312055,
      "eccentricity": 0.0001636,
      "inclination_deg": 86.4853,
      "raan_deg": 278.9868,
      "arg_perigee_deg": 100.0584,
      "mean_anomaly_deg": 260.0734,
      "mean_motion_rev_day": 13.24414796
    }
  ]
}